CCSDS_OMM_VERS = 2.0
CREATION_DATE  = 
ORIGINATOR     = 

OBJECT_NAME    = SZ-21 DEB
OBJECT_ID      = 2025-246C
CENTER_NAME    = EARTH
REF_FRAME      = TEME
TIME_SYSTEM    = UTC
MEAN_ELEMENT_THEORY = SGP/SGP4

EPOCH          = 2025-11-19T20:05:20.834016
MEAN_MOTION    = 15.60983188
ECCENTRICITY   = .0004594
INCLINATION    = 41.4748
RA_OF_ASC_NODE = 155.5955
ARG_OF_PERICENTER = 95.4343
MEAN_ANOMALY   = 264.7021

EPHEMERIS_TYPE = 0
CLASSIFICATION_TYPE = U
NORAD_CAT_ID   = 66515
ELEMENT_SET_NO = 999
REV_AT_EPOCH   = 86
BSTAR          = .26769E-3
MEAN_MOTION_DOT = .22856E-3
MEAN_MOTION_DDOT = 0

