SZ-21 DEB               
1 66515U 25246C   25323.83704669  .00022856  00000+0  26769-3 0  9995
2 66515  41.4748 155.5955 0004594  95.4343 264.7021 15.60983188   863
